STRIX-4                 
1 60352U 24137A   26068.65404516  .00020530  00000+0  71820-3 0  9996
2 60352  43.0134 129.8162 0016840   5.2738 354.8289 15.29026223 88766
STARLINK-32539          
1 62022U 24213Q   26068.52724606  .00030517  00000+0  10389-2 0  9996
2 62022  53.1573 156.3628 0001227  77.2127 282.9011 15.30177862 73303
